start=new Date('2022-01-12T00:00:00.000Z').valueOf();
sats=[{"EPOCH":"2022-01-11T12:16:11.407296","LAUNCH_DATE":"2021-04-29","TLE_LINE2":"2 48284  53.0555  56.9756 0001349  73.5558 286.5580 15.06394860 39489","BSTAR":"-0.00005321200000","MEAN_ANOMALY":"286.5580","ELEMENT_SET_NO":"999","CLASSIFICATION_TYPE":"U","CENTER_NAME":"EARTH","SITE":"AFETR","OBJECT_TYPE":"PAYLOAD","OBJECT_ID":"2021-036J","FILE":"3269657","TLE_LINE1":"1 48284U 21036J   22011.51124314 -.00001074  00000-0 -53212-4 0  9996","RCS_SIZE":"LARGE","MEAN_MOTION_DDOT":"0.0000000000000","DECAY_DATE":null,"PERIOD":"95.592","NORAD_CAT_ID":"48284","REV_AT_EPOCH":"3948","EPHEMERIS_TYPE":"0","SEMIMAJOR_AXIS":"6925.364","TIME_SYSTEM":"UTC","PERIAPSIS":"546.295","OBJECT_NAME":"STARLINK-2564","RA_OF_ASC_NODE":"56.9756","APOAPSIS":"548.164","MEAN_MOTION":"15.06394860","INCLINATION":"53.0555","ARG_OF_PERICENTER":"73.5558","MEAN_ELEMENT_THEORY":"SGP4","GP_ID":"193663751","MEAN_MOTION_DOT":"-0.00001074","COUNTRY_CODE":"US","REF_FRAME":"TEME","ECCENTRICITY":"0.00013490"},{"MEAN_ANOMALY":"278.3335","ELEMENT_SET_NO":"999","CLASSIFICATION_TYPE":"U","SITE":"AFETR","CENTER_NAME":"EARTH","EPOCH":"2022-01-11T10:35:20.590656","LAUNCH_DATE":"2021-04-29","TLE_LINE2":"2 48285  53.0564  57.2935 0001346  81.7807 278.3335 15.06397028 39473","BSTAR":"-0.00008794300000","RCS_SIZE":"LARGE","TLE_LINE1":"1 48285U 21036K   22011.44121054 -.00001591  00000-0 -87943-4 0  9999","DECAY_DATE":null,"MEAN_MOTION_DDOT":"0.0000000000000","PERIOD":"95.592","NORAD_CAT_ID":"48285","REV_AT_EPOCH":"3947","EPHEMERIS_TYPE":"0","OBJECT_TYPE":"PAYLOAD","OBJECT_ID":"2021-036K","FILE":"3269657","MEAN_MOTION":"15.06397028","APOAPSIS":"548.155","RA_OF_ASC_NODE":"57.2935","SEMIMAJOR_AXIS":"6925.358","TIME_SYSTEM":"UTC","PERIAPSIS":"546.291","OBJECT_NAME":"STARLINK-2548","MEAN_MOTION_DOT":"-0.00001591","COUNTRY_CODE":"US","REF_FRAME":"TEME","ECCENTRICITY":"0.00013460","INCLINATION":"53.0564","ARG_OF_PERICENTER":"81.7807","MEAN_ELEMENT_THEORY":"SGP4","GP_ID":"193662000"},{"MEAN_ANOMALY":"290.7161","CLASSIFICATION_TYPE":"U","ELEMENT_SET_NO":"999","SITE":"AFETR","CENTER_NAME":"EARTH","EPOCH":"2022-01-11T12:05:34.247040","LAUNCH_DATE":"2021-04-29","TLE_LINE2":"2 48286  53.0571  57.0215 0001465  69.3985 290.7161 15.06400967 39485","BSTAR":"0.00005968600000","TLE_LINE1":"1 48286U 21036L   22011.50386860  .00000608  00000-0  59686-4 0  9994","RCS_SIZE":"LARGE","MEAN_MOTION_DDOT":"0.0000000000000","DECAY_DATE":null,"PERIOD":"95.592","REV_AT_EPOCH":"3948","NORAD_CAT_ID":"48286","EPHEMERIS_TYPE":"0","OBJECT_TYPE":"PAYLOAD","OBJECT_ID":"2021-036L","FILE":"3269657","APOAPSIS":"548.225","RA_OF_ASC_NODE":"57.0215","MEAN_MOTION":"15.06400967","SEMIMAJOR_AXIS":"6925.346","TIME_SYSTEM":"UTC","OBJECT_NAME":"STARLINK-2547","PERIAPSIS":"546.196","MEAN_MOTION_DOT":"0.00000608","COUNTRY_CODE":"US","REF_FRAME":"TEME","ECCENTRICITY":"0.00014650","INCLINATION":"53.0571","ARG_OF_PERICENTER":"69.3985","MEAN_ELEMENT_THEORY":"SGP4","GP_ID":"193662750"},{"TLE_LINE2":"2 48287  53.0558  57.0265 0001406  73.0159 287.0984 15.06393835 40069","BSTAR":"-0.00005480000000","LAUNCH_DATE":"2021-04-29","EPOCH":"2022-01-11T12:00:16.344288","CENTER_NAME":"EARTH","SITE":"AFETR","MEAN_ANOMALY":"287.0984","ELEMENT_SET_NO":"999","CLASSIFICATION_TYPE":"U","FILE":"3269780","OBJECT_TYPE":"PAYLOAD","OBJECT_ID":"2021-036M","NORAD_CAT_ID":"48287","REV_AT_EPOCH":"4006","EPHEMERIS_TYPE":"0","PERIOD":"95.593","RCS_SIZE":"LARGE","TLE_LINE1":"1 48287U 21036M   22011.50018917 -.00001097  00000-0 -54800-4 0  9998","MEAN_MOTION_DDOT":"0.0000000000000","DECAY_DATE":null,"OBJECT_NAME":"STARLINK-2566","PERIAPSIS":"546.259","TIME_SYSTEM":"UTC","SEMIMAJOR_AXIS":"6925.367","MEAN_MOTION":"15.06393835","APOAPSIS":"548.206","RA_OF_ASC_NODE":"57.0265","GP_ID":"193666573","ARG_OF_PERICENTER":"73.0159","MEAN_ELEMENT_THEORY":"SGP4","INCLINATION":"53.0558","ECCENTRICITY":"0.00014060","REF_FRAME":"TEME","MEAN_MOTION_DOT":"-0.00001097","COUNTRY_CODE":"US"},{"SITE":"AFETR","CENTER_NAME":"EARTH","CLASSIFICATION_TYPE":"U","ELEMENT_SET_NO":"999","MEAN_ANOMALY":"284.4762","LAUNCH_DATE":"2021-04-29","EPOCH":"2022-01-11T11:54:58.091616","BSTAR":"-0.00009284800000","TLE_LINE2":"2 48288  53.0568  57.0542 0001392  75.6381 284.4762 15.06390897 39482","MEAN_MOTION_DDOT":"0.0000000000000","DECAY_DATE":null,"TLE_LINE1":"1 48288U 21036N   22011.49650569 -.00001664  00000-0 -92848-4 0  9996","RCS_SIZE":"LARGE","EPHEMERIS_TYPE":"0","NORAD_CAT_ID":"48288","REV_AT_EPOCH":"3948","PERIOD":"95.593","FILE":"3269657","OBJECT_ID":"2021-036N","OBJECT_TYPE":"PAYLOAD","APOAPSIS":"548.205","RA_OF_ASC_NODE":"57.0542","MEAN_MOTION":"15.06390897","SEMIMAJOR_AXIS":"6925.376","OBJECT_NAME":"STARLINK-2562","PERIAPSIS":"546.277","TIME_SYSTEM":"UTC","COUNTRY_CODE":"US","MEAN_MOTION_DOT":"-0.00001664","ECCENTRICITY":"0.00013920","REF_FRAME":"TEME","MEAN_ELEMENT_THEORY":"SGP4","ARG_OF_PERICENTER":"75.6381","INCLINATION":"53.0568","GP_ID":"193663252"},{"CENTER_NAME":"EARTH","SITE":"AFETR","MEAN_ANOMALY":"289.3889","CLASSIFICATION_TYPE":"U","ELEMENT_SET_NO":"999","TLE_LINE2":"2 48289  53.0553  57.0587 0001330  70.7243 289.3889 15.06389412 39486","BSTAR":"-0.00006977900000","LAUNCH_DATE":"2021-04-29","EPOCH":"2022-01-11T11:49:39.424224","NORAD_CAT_ID":"48289","REV_AT_EPOCH":"3948","EPHEMERIS_TYPE":"0","PERIOD":"95.593","RCS_SIZE":"LARGE","TLE_LINE1":"1 48289U 21036P   22011.49281741 -.00001320  00000-0 -69779-4 0  9995","MEAN_MOTION_DDOT":"0.0000000000000","DECAY_DATE":null,"FILE":"3269657","OBJECT_TYPE":"PAYLOAD","OBJECT_ID":"2021-036P","MEAN_MOTION":"15.06389412","APOAPSIS":"548.167","RA_OF_ASC_NODE":"57.0587","OBJECT_NAME":"STARLINK-2545","PERIAPSIS":"546.325","TIME_SYSTEM":"UTC","SEMIMAJOR_AXIS":"6925.381","ECCENTRICITY":"0.00013300","REF_FRAME":"TEME","COUNTRY_CODE":"US","MEAN_MOTION_DOT":"-0.00001320","GP_ID":"193662500","ARG_OF_PERICENTER":"70.7243","MEAN_ELEMENT_THEORY":"SGP4","INCLINATION":"53.0553"},{"GP_ID":"193692554","MEAN_ELEMENT_THEORY":"SGP4","ARG_OF_PERICENTER":"63.5855","INCLINATION":"53.0552","ECCENTRICITY":"0.00014900","REF_FRAME":"TEME","MEAN_MOTION_DOT":"-0.00002089","COUNTRY_CODE":"US","PERIAPSIS":"546.204","OBJECT_NAME":"STARLINK-2540","TIME_SYSTEM":"UTC","SEMIMAJOR_AXIS":"6925.371","APOAPSIS":"548.268","MEAN_MOTION":"15.06392631","RA_OF_ASC_NODE":"56.5022","FILE":"3269987","OBJECT_ID":"2021-036Q","OBJECT_TYPE":"PAYLOAD","EPHEMERIS_TYPE":"0","NORAD_CAT_ID":"48290","REV_AT_EPOCH":"3950","PERIOD":"95.593","MEAN_MOTION_DDOT":"0.0000000000000","DECAY_DATE":null,"TLE_LINE1":"1 48290U 21036Q   22011.62182112 -.00002089  00000-0 -12141-3 0  9997","RCS_SIZE":"LARGE","BSTAR":"-0.00012141000000","TLE_LINE2":"2 48290  53.0552  56.5022 0001490  63.5855 296.5287 15.06392631 39503","LAUNCH_DATE":"2021-04-29","EPOCH":"2022-01-11T14:55:25.344768","CENTER_NAME":"EARTH","SITE":"AFETR","CLASSIFICATION_TYPE":"U","ELEMENT_SET_NO":"999","MEAN_ANOMALY":"296.5287"},{"PERIAPSIS":"546.219","OBJECT_NAME":"STARLINK-2555","TIME_SYSTEM":"UTC","SEMIMAJOR_AXIS":"6925.349","APOAPSIS":"548.208","RA_OF_ASC_NODE":"56.5114","MEAN_MOTION":"15.06399931","GP_ID":"193692299","MEAN_ELEMENT_THEORY":"SGP4","ARG_OF_PERICENTER":"69.0551","INCLINATION":"53.0561","ECCENTRICITY":"0.00014360","REF_FRAME":"TEME","MEAN_MOTION_DOT":"-0.00001172","COUNTRY_CODE":"US","BSTAR":"-0.00005977500000","TLE_LINE2":"2 48291  53.0561  56.5114 0001436  69.0551 291.0592 15.06399931 39509","LAUNCH_DATE":"2021-04-29","EPOCH":"2022-01-11T14:50:06.849312","SITE":"AFETR","CENTER_NAME":"EARTH","ELEMENT_SET_NO":"999","CLASSIFICATION_TYPE":"U","MEAN_ANOMALY":"291.0592","FILE":"3269987","OBJECT_ID":"2021-036R","OBJECT_TYPE":"PAYLOAD","EPHEMERIS_TYPE":"0","REV_AT_EPOCH":"3950","NORAD_CAT_ID":"48291","PERIOD":"95.592","MEAN_MOTION_DDOT":"0.0000000000000","DECAY_DATE":null,"TLE_LINE1":"1 48291U 21036R   22011.61813483 -.00001172  00000-0 -59775-4 0  9996","RCS_SIZE":"LARGE"},{"BSTAR":"-0.00000921310000","TLE_LINE2":"2 48292  53.0561  57.1241 0001344  67.8941 292.2191 15.06396883 39483","EPOCH":"2022-01-11T11:32:22.028064","LAUNCH_DATE":"2021-04-29","CLASSIFICATION_TYPE":"U","ELEMENT_SET_NO":"999","MEAN_ANOMALY":"292.2191","CENTER_NAME":"EARTH","SITE":"AFETR","OBJECT_ID":"2021-036S","OBJECT_TYPE":"PAYLOAD","FILE":"3269657","PERIOD":"95.592","EPHEMERIS_TYPE":"0","REV_AT_EPOCH":"3948","NORAD_CAT_ID":"48292","MEAN_MOTION_DDOT":"0.0000000000000","DECAY_DATE":null,"TLE_LINE1":"1 48292U 21036S   22011.48081051 -.00000419  00000-0 -92131-5 0  9997","RCS_SIZE":"LARGE","TIME_SYSTEM":"UTC","OBJECT_NAME":"STARLINK-2542","PERIAPSIS":"546.292","SEMIMAJOR_AXIS":"6925.358","RA_OF_ASC_NODE":"57.1241","APOAPSIS":"548.154","MEAN_MOTION":"15.06396883","GP_ID":"193663752","INCLINATION":"53.0561","MEAN_ELEMENT_THEORY":"SGP4","ARG_OF_PERICENTER":"67.8941","REF_FRAME":"TEME","ECCENTRICITY":"0.00013440","COUNTRY_CODE":"US","MEAN_MOTION_DOT":"-0.00000419"},{"OBJECT_ID":"2021-036T","OBJECT_TYPE":"PAYLOAD","FILE":"3269657","DECAY_DATE":null,"MEAN_MOTION_DDOT":"0.0000000000000","TLE_LINE1":"1 48293U 21036T   22011.47807479 -.00000599  00000-0 -21323-4 0  9990","RCS_SIZE":"LARGE","PERIOD":"95.593","EPHEMERIS_TYPE":"0","NORAD_CAT_ID":"48293","REV_AT_EPOCH":"3948","EPOCH":"2022-01-11T11:28:25.661856","LAUNCH_DATE":"2021-04-29","BSTAR":"-0.00002132300000","TLE_LINE2":"2 48293  53.0559  57.1334 0001434  72.3715 287.7431 15.06393403 39485","ELEMENT_SET_NO":"999","CLASSIFICATION_TYPE":"U","MEAN_ANOMALY":"287.7431","CENTER_NAME":"EARTH","SITE":"AFETR","INCLINATION":"53.0559","MEAN_ELEMENT_THEORY":"SGP4","ARG_OF_PERICENTER":"72.3715","GP_ID":"193662001","COUNTRY_CODE":"US","MEAN_MOTION_DOT":"-0.00000599","REF_FRAME":"TEME","ECCENTRICITY":"0.00014340","SEMIMAJOR_AXIS":"6925.369","TIME_SYSTEM":"UTC","PERIAPSIS":"546.241","OBJECT_NAME":"STARLINK-2550","MEAN_MOTION":"15.06393403","APOAPSIS":"548.227","RA_OF_ASC_NODE":"57.1334"}];
